start=new Date('2023-04-15T00:00:00.000Z').valueOf();
sats=[{"LAUNCH_DATE":"2022-06-17","MEAN_MOTION_DOT":"0.00000942","BSTAR":"0.00007726400000","TIME_SYSTEM":"UTC","REF_FRAME":"TEME","OBJECT_ID":"2022-062BE","ECCENTRICITY":"0.00011270","RA_OF_ASC_NODE":"94.5090","TLE_LINE1":"1 52882U 22062BE  23104.27416174  .00000942  00000-0  77264-4 0  9994","SEMIMAJOR_AXIS":"6917.889","OBJECT_NAME":"STARLINK-4181","ARG_OF_PERICENTER":"97.1298","APOAPSIS":"540.534","PERIOD":"95.438","COUNTRY_CODE":"US","MEAN_ANOMALY":"262.9822","CLASSIFICATION_TYPE":"U","INCLINATION":"53.2158","SITE":"AFETR","GP_ID":"230059792","CENTER_NAME":"EARTH","TLE_LINE2":"2 52882  53.2158  94.5090 0001127  97.1298 262.9822 15.08837123 45980","REV_AT_EPOCH":"4598","OBJECT_TYPE":"PAYLOAD","MEAN_MOTION":"15.08837123","DECAY_DATE":null,"FILE":"3887333","PERIAPSIS":"538.975","ELEMENT_SET_NO":"999","MEAN_ELEMENT_THEORY":"SGP4","RCS_SIZE":"LARGE","MEAN_MOTION_DDOT":"0.0000000000000","NORAD_CAT_ID":"52882","EPOCH":"2023-04-14T06:34:47.574336","EPHEMERIS_TYPE":"0"},{"SEMIMAJOR_AXIS":"6917.849","OBJECT_NAME":"STARLINK-4260","ARG_OF_PERICENTER":"81.4766","PERIOD":"95.437","APOAPSIS":"540.436","ECCENTRICITY":"0.00010450","RA_OF_ASC_NODE":"173.3199","TLE_LINE1":"1 52986U 22076A   23104.53911717  .00009470  00000-0  61211-3 0  9995","INCLINATION":"53.2156","SITE":"AFETR","COUNTRY_CODE":"US","CLASSIFICATION_TYPE":"U","MEAN_ANOMALY":"278.6344","MEAN_MOTION_DOT":"0.00009470","BSTAR":"0.00061211000000","LAUNCH_DATE":"2022-07-07","REF_FRAME":"TEME","OBJECT_ID":"2022-076A","TIME_SYSTEM":"UTC","MEAN_ELEMENT_THEORY":"SGP4","RCS_SIZE":"LARGE","PERIAPSIS":"538.991","ELEMENT_SET_NO":"999","EPOCH":"2023-04-14T12:56:19.723488","NORAD_CAT_ID":"52986","EPHEMERIS_TYPE":"0","MEAN_MOTION_DDOT":"0.0000000000000","CENTER_NAME":"EARTH","TLE_LINE2":"2 52986  53.2156 173.3199 0001045  81.4766 278.6344 15.08850426 42794","GP_ID":"230059301","DECAY_DATE":null,"FILE":"3887333","REV_AT_EPOCH":"4279","MEAN_MOTION":"15.08850426","OBJECT_TYPE":"PAYLOAD"},{"MEAN_MOTION":"15.08838819","OBJECT_TYPE":"PAYLOAD","REV_AT_EPOCH":"4265","DECAY_DATE":null,"FILE":"3887333","GP_ID":"230058049","TLE_LINE2":"2 52987  53.2169 183.4381 0001407 101.2097 258.9053 15.08838819 42659","CENTER_NAME":"EARTH","MEAN_MOTION_DDOT":"0.0000000000000","EPHEMERIS_TYPE":"0","NORAD_CAT_ID":"52987","EPOCH":"2023-04-14T12:17:54.368448","PERIAPSIS":"538.776","ELEMENT_SET_NO":"999","MEAN_ELEMENT_THEORY":"SGP4","RCS_SIZE":"LARGE","TIME_SYSTEM":"UTC","REF_FRAME":"TEME","OBJECT_ID":"2022-076B","LAUNCH_DATE":"2022-07-07","BSTAR":"-0.00001974500000","MEAN_MOTION_DOT":"-0.00000602","CLASSIFICATION_TYPE":"U","MEAN_ANOMALY":"258.9053","COUNTRY_CODE":"US","SITE":"AFETR","INCLINATION":"53.2169","RA_OF_ASC_NODE":"183.4381","TLE_LINE1":"1 52987U 22076B   23104.51243482 -.00000602  00000-0 -19745-4 0  9997","ECCENTRICITY":"0.00014070","PERIOD":"95.438","APOAPSIS":"540.722","SEMIMAJOR_AXIS":"6917.884","OBJECT_NAME":"STARLINK-4259","ARG_OF_PERICENTER":"101.2097"},{"TIME_SYSTEM":"UTC","OBJECT_ID":"2022-076C","REF_FRAME":"TEME","LAUNCH_DATE":"2022-07-07","BSTAR":"0.00033229000000","MEAN_MOTION_DOT":"0.00005006","COUNTRY_CODE":"US","CLASSIFICATION_TYPE":"U","MEAN_ANOMALY":"288.1263","INCLINATION":"53.2140","SITE":"AFETR","ECCENTRICITY":"0.00013190","TLE_LINE1":"1 52988U 22076C   23104.46919858  .00005006  00000-0  33229-3 0  9992","RA_OF_ASC_NODE":"173.6350","ARG_OF_PERICENTER":"71.9873","SEMIMAJOR_AXIS":"6917.854","OBJECT_NAME":"STARLINK-4291","APOAPSIS":"540.632","PERIOD":"95.437","REV_AT_EPOCH":"4278","OBJECT_TYPE":"PAYLOAD","MEAN_MOTION":"15.08848504","FILE":"3887333","DECAY_DATE":null,"GP_ID":"230058299","CENTER_NAME":"EARTH","TLE_LINE2":"2 52988  53.2140 173.6350 0001319  71.9873 288.1263 15.08848504 42787","MEAN_MOTION_DDOT":"0.0000000000000","EPOCH":"2023-04-14T11:15:38.757312","NORAD_CAT_ID":"52988","EPHEMERIS_TYPE":"0","ELEMENT_SET_NO":"999","PERIAPSIS":"538.807","RCS_SIZE":"LARGE","MEAN_ELEMENT_THEORY":"SGP4"},{"OBJECT_ID":"2022-076D","REF_FRAME":"TEME","TIME_SYSTEM":"UTC","BSTAR":"0.00111340000000","MEAN_MOTION_DOT":"0.00017482","LAUNCH_DATE":"2022-07-07","INCLINATION":"53.2142","SITE":"AFETR","COUNTRY_CODE":"US","CLASSIFICATION_TYPE":"U","MEAN_ANOMALY":"272.5586","ARG_OF_PERICENTER":"87.5561","SEMIMAJOR_AXIS":"6917.846","OBJECT_NAME":"STARLINK-4293","PERIOD":"95.437","APOAPSIS":"540.648","ECCENTRICITY":"0.00013550","TLE_LINE1":"1 52989U 22076D   23104.50875717  .00017482  00000-0  11134-2 0  9994","RA_OF_ASC_NODE":"183.4568","FILE":"3887243","DECAY_DATE":null,"REV_AT_EPOCH":"4312","MEAN_MOTION":"15.08851269","OBJECT_TYPE":"PAYLOAD","CENTER_NAME":"EARTH","TLE_LINE2":"2 52989  53.2142 183.4568 0001355  87.5561 272.5586 15.08851269 43123","GP_ID":"230033149","EPOCH":"2023-04-14T12:12:36.619488","NORAD_CAT_ID":"52989","EPHEMERIS_TYPE":"0","MEAN_MOTION_DDOT":"0.0000000000000","RCS_SIZE":"LARGE","MEAN_ELEMENT_THEORY":"SGP4","ELEMENT_SET_NO":"999","PERIAPSIS":"538.774"},{"COUNTRY_CODE":"US","MEAN_ANOMALY":"264.2358","CLASSIFICATION_TYPE":"U","INCLINATION":"53.2144","SITE":"AFETR","ECCENTRICITY":"0.00013450","TLE_LINE1":"1 52990U 22076E   23104.90251675  .00018364  00000-0  11685-2 0  9992","RA_OF_ASC_NODE":"181.6894","ARG_OF_PERICENTER":"95.8788","OBJECT_NAME":"STARLINK-4286","SEMIMAJOR_AXIS":"6917.839","PERIOD":"95.437","APOAPSIS":"540.634","TIME_SYSTEM":"UTC","OBJECT_ID":"2022-076E","REF_FRAME":"TEME","LAUNCH_DATE":"2022-07-07","MEAN_MOTION_DOT":"0.00018364","BSTAR":"0.00116850000000","MEAN_MOTION_DDOT":"0.0000000000000","NORAD_CAT_ID":"52990","EPOCH":"2023-04-14T21:39:37.447200","EPHEMERIS_TYPE":"0","ELEMENT_SET_NO":"999","PERIAPSIS":"538.773","RCS_SIZE":"LARGE","MEAN_ELEMENT_THEORY":"SGP4","REV_AT_EPOCH":"4318","MEAN_MOTION":"15.08853599","OBJECT_TYPE":"PAYLOAD","FILE":"3887580","DECAY_DATE":null,"GP_ID":"230067583","CENTER_NAME":"EARTH","TLE_LINE2":"2 52990  53.2144 181.6894 0001345  95.8788 264.2358 15.08853599 43180"},{"APOAPSIS":"540.650","PERIOD":"95.437","ARG_OF_PERICENTER":"107.4808","SEMIMAJOR_AXIS":"6917.860","OBJECT_NAME":"STARLINK-4285","TLE_LINE1":"1 52991U 22076F   23104.63387429  .00003463  00000-0  23552-3 0  9991","RA_OF_ASC_NODE":"182.8931","ECCENTRICITY":"0.00013380","SITE":"AFETR","INCLINATION":"53.2142","CLASSIFICATION_TYPE":"U","MEAN_ANOMALY":"252.6331","COUNTRY_CODE":"US","BSTAR":"0.00023552000000","MEAN_MOTION_DOT":"0.00003463","LAUNCH_DATE":"2022-07-07","OBJECT_ID":"2022-076F","REF_FRAME":"TEME","TIME_SYSTEM":"UTC","RCS_SIZE":"LARGE","MEAN_ELEMENT_THEORY":"SGP4","ELEMENT_SET_NO":"999","PERIAPSIS":"538.799","EPHEMERIS_TYPE":"0","NORAD_CAT_ID":"52991","EPOCH":"2023-04-14T15:12:46.738656","MEAN_MOTION_DDOT":"0.0000000000000","TLE_LINE2":"2 52991  53.2142 182.8931 0001338 107.4808 252.6331 15.08846807 43141","CENTER_NAME":"EARTH","GP_ID":"230063035","FILE":"3887374","DECAY_DATE":null,"OBJECT_TYPE":"PAYLOAD","MEAN_MOTION":"15.08846807","REV_AT_EPOCH":"4314"},{"MEAN_MOTION_DDOT":"0.0000000000000","EPHEMERIS_TYPE":"0","NORAD_CAT_ID":"52992","EPOCH":"2023-04-14T10:22:42.492864","PERIAPSIS":"538.859","ELEMENT_SET_NO":"999","MEAN_ELEMENT_THEORY":"SGP4","RCS_SIZE":"LARGE","OBJECT_TYPE":"PAYLOAD","MEAN_MOTION":"15.08838223","REV_AT_EPOCH":"4264","DECAY_DATE":null,"FILE":"3887333","GP_ID":"230058800","TLE_LINE2":"2 52992  53.2153 183.8087 0001289  75.2353 284.8782 15.08838223 42643","CENTER_NAME":"EARTH","MEAN_ANOMALY":"284.8782","CLASSIFICATION_TYPE":"U","COUNTRY_CODE":"US","SITE":"AFETR","INCLINATION":"53.2153","RA_OF_ASC_NODE":"183.8087","TLE_LINE1":"1 52992U 22076G   23104.43243626  .00001852  00000-0  13442-3 0  9997","ECCENTRICITY":"0.00012890","APOAPSIS":"540.643","PERIOD":"95.438","SEMIMAJOR_AXIS":"6917.886","OBJECT_NAME":"STARLINK-4269","ARG_OF_PERICENTER":"75.2353","TIME_SYSTEM":"UTC","REF_FRAME":"TEME","OBJECT_ID":"2022-076G","LAUNCH_DATE":"2022-07-07","BSTAR":"0.00013442000000","MEAN_MOTION_DOT":"0.00001852"},{"TIME_SYSTEM":"UTC","REF_FRAME":"TEME","OBJECT_ID":"2022-076H","LAUNCH_DATE":"2022-07-07","MEAN_MOTION_DOT":"0.00001868","BSTAR":"0.00013544000000","MEAN_ANOMALY":"274.9677","CLASSIFICATION_TYPE":"U","COUNTRY_CODE":"US","SITE":"AFETR","INCLINATION":"53.2140","RA_OF_ASC_NODE":"173.6515","TLE_LINE1":"1 52993U 22076H   23104.46551856  .00001868  00000-0  13544-3 0  9998","ECCENTRICITY":"0.00014880","PERIOD":"95.438","APOAPSIS":"540.772","OBJECT_NAME":"STARLINK-4264","SEMIMAJOR_AXIS":"6917.878","ARG_OF_PERICENTER":"85.1485","OBJECT_TYPE":"PAYLOAD","MEAN_MOTION":"15.08840792","REV_AT_EPOCH":"4278","DECAY_DATE":null,"FILE":"3887333","GP_ID":"230059051","TLE_LINE2":"2 52993  53.2140 173.6515 0001488  85.1485 274.9677 15.08840792 42782","CENTER_NAME":"EARTH","MEAN_MOTION_DDOT":"0.0000000000000","EPHEMERIS_TYPE":"0","EPOCH":"2023-04-14T11:10:20.803584","NORAD_CAT_ID":"52993","PERIAPSIS":"538.714","ELEMENT_SET_NO":"999","MEAN_ELEMENT_THEORY":"SGP4","RCS_SIZE":"LARGE"},{"OBJECT_ID":"2022-076J","REF_FRAME":"TEME","TIME_SYSTEM":"UTC","MEAN_MOTION_DOT":"0.00002185","BSTAR":"0.00015527000000","LAUNCH_DATE":"2022-07-07","SITE":"AFETR","INCLINATION":"53.2155","CLASSIFICATION_TYPE":"U","MEAN_ANOMALY":"246.9844","COUNTRY_CODE":"US","APOAPSIS":"540.692","PERIOD":"95.437","ARG_OF_PERICENTER":"113.1298","SEMIMAJOR_AXIS":"6917.843","OBJECT_NAME":"STARLINK-4256","TLE_LINE1":"1 52994U 22076J   23104.66054670  .00002185  00000-0  15527-3 0  9999","RA_OF_ASC_NODE":"172.7735","ECCENTRICITY":"0.00014230","FILE":"3887374","DECAY_DATE":null,"MEAN_MOTION":"15.08852364","OBJECT_TYPE":"PAYLOAD","REV_AT_EPOCH":"4328","TLE_LINE2":"2 52994  53.2155 172.7735 0001423 113.1298 246.9844 15.08852364 43285","CENTER_NAME":"EARTH","GP_ID":"230063053","EPHEMERIS_TYPE":"0","EPOCH":"2023-04-14T15:51:11.234880","NORAD_CAT_ID":"52994","MEAN_MOTION_DDOT":"0.0000000000000","RCS_SIZE":"LARGE","MEAN_ELEMENT_THEORY":"SGP4","ELEMENT_SET_NO":"999","PERIAPSIS":"538.723"}];
